QIANFAN-103             
1 66045U 25233N   26066.56850048  .00000035  00000+0  34987-4 0  9994
2 66045  88.9940  53.4628 0001931  91.4010 268.7363 13.51006267 19464
QIANFAN-104             
1 66046U 25233P   26066.57239403  .00000047  00000+0  54736-4 0  9999
2 66046  88.9945  53.3599 0002091  85.3337 274.8053 13.51010382 19511
QIANFAN-105             
1 66047U 25233Q   26066.58060370  .00000041  00000+0  44834-4 0  9998
2 66047  88.9958  53.1886 0002068  91.8477 268.2911 13.50981599 19622
QIANFAN-106             
1 66048U 25233R   26066.57668369  .00000042  00000+0  46645-4 0  9993
2 66048  88.9927  53.4338 0002386  84.9276 275.2148 13.51005306 19474
QIANFAN-107             
1 66049U 25233S   26066.58494589  .00000026  00000+0  21301-4 0  9990
2 66049  88.9943  53.4494 0001965  90.5178 269.6198 13.51003277 19479
QIANFAN-108             
1 66050U 25233T   26066.58904807  .00000021  00000+0  13864-4 0  9991
2 66050  88.9936  53.4438 0002352  84.4801 275.6619 13.51004760 19470
