[{"OBJECT_NAME":"QIANFAN-103","OBJECT_ID":"2025-233N","EPOCH":"2026-03-07T13:38:38.441472","MEAN_MOTION":13.51006267,"ECCENTRICITY":0.00019315,"INCLINATION":88.994,"RA_OF_ASC_NODE":53.4628,"ARG_OF_PERICENTER":91.401,"MEAN_ANOMALY":268.7363,"EPHEMERIS_TYPE":0,"CLASSIFICATION_TYPE":"U","NORAD_CAT_ID":66045,"ELEMENT_SET_NO":999,"REV_AT_EPOCH":1946,"BSTAR":3.4987174e-5,"MEAN_MOTION_DOT":3.5e-7,"MEAN_MOTION_DDOT":0},{"OBJECT_NAME":"QIANFAN-104","OBJECT_ID":"2025-233P","EPOCH":"2026-03-07T13:44:14.844192","MEAN_MOTION":13.51010382,"ECCENTRICITY":0.00020915,"INCLINATION":88.9945,"RA_OF_ASC_NODE":53.3599,"ARG_OF_PERICENTER":85.3337,"MEAN_ANOMALY":274.8053,"EPHEMERIS_TYPE":0,"CLASSIFICATION_TYPE":"U","NORAD_CAT_ID":66046,"ELEMENT_SET_NO":999,"REV_AT_EPOCH":1951,"BSTAR":5.4736373e-5,"MEAN_MOTION_DOT":4.7e-7,"MEAN_MOTION_DDOT":0},{"OBJECT_NAME":"QIANFAN-105","OBJECT_ID":"2025-233Q","EPOCH":"2026-03-07T13:56:04.159680","MEAN_MOTION":13.50981599,"ECCENTRICITY":0.00020684,"INCLINATION":88.9958,"RA_OF_ASC_NODE":53.1886,"ARG_OF_PERICENTER":91.8477,"MEAN_ANOMALY":268.2911,"EPHEMERIS_TYPE":0,"CLASSIFICATION_TYPE":"U","NORAD_CAT_ID":66047,"ELEMENT_SET_NO":999,"REV_AT_EPOCH":1962,"BSTAR":4.4833509e-5,"MEAN_MOTION_DOT":4.1e-7,"MEAN_MOTION_DDOT":0},{"OBJECT_NAME":"QIANFAN-106","OBJECT_ID":"2025-233R","EPOCH":"2026-03-07T13:50:25.470816","MEAN_MOTION":13.51005306,"ECCENTRICITY":0.00023865,"INCLINATION":88.9927,"RA_OF_ASC_NODE":53.4338,"ARG_OF_PERICENTER":84.9276,"MEAN_ANOMALY":275.2148,"EPHEMERIS_TYPE":0,"CLASSIFICATION_TYPE":"U","NORAD_CAT_ID":66048,"ELEMENT_SET_NO":999,"REV_AT_EPOCH":1947,"BSTAR":4.664501e-5,"MEAN_MOTION_DOT":4.2e-7,"MEAN_MOTION_DDOT":0},{"OBJECT_NAME":"QIANFAN-107","OBJECT_ID":"2025-233S","EPOCH":"2026-03-07T14:02:19.324896","MEAN_MOTION":13.51003277,"ECCENTRICITY":0.00019653,"INCLINATION":88.9943,"RA_OF_ASC_NODE":53.4494,"ARG_OF_PERICENTER":90.5178,"MEAN_ANOMALY":269.6198,"EPHEMERIS_TYPE":0,"CLASSIFICATION_TYPE":"U","NORAD_CAT_ID":66049,"ELEMENT_SET_NO":999,"REV_AT_EPOCH":1947,"BSTAR":2.130147e-5,"MEAN_MOTION_DOT":2.6e-7,"MEAN_MOTION_DDOT":0},{"OBJECT_NAME":"QIANFAN-108","OBJECT_ID":"2025-233T","EPOCH":"2026-03-07T14:08:13.753248","MEAN_MOTION":13.5100476,"ECCENTRICITY":0.00023529,"INCLINATION":88.9936,"RA_OF_ASC_NODE":53.4438,"ARG_OF_PERICENTER":84.4801,"MEAN_ANOMALY":275.6619,"EPHEMERIS_TYPE":0,"CLASSIFICATION_TYPE":"U","NORAD_CAT_ID":66050,"ELEMENT_SET_NO":999,"REV_AT_EPOCH":1947,"BSTAR":1.3863654e-5,"MEAN_MOTION_DOT":2.1e-7,"MEAN_MOTION_DDOT":0}]
